QIANFAN-225             
1 69854U 26155G   26204.24963672  .00000173  00000+0  75188-4 0  9997
2 69854  89.0060  60.0360 0029737 195.3879 164.6410 14.19333009  2526
QIANFAN-226             
1 69855U 26155H   26204.24743707  .00000196  00000+0  85812-4 0  9993
2 69855  89.0060  60.0356 0030495 195.7630 164.2614 14.19637337  2527
QIANFAN-227             
1 69856U 26155J   26204.24129485  .00000193  00000+0  84001-4 0  9991
2 69856  89.0060  60.0349 0030432 195.3137 164.7135 14.19929145  2523
QIANFAN-228             
1 69857U 26155K   26204.23908735  .00000161  00000+0  68447-4 0  9995
2 69857  89.0061  60.0347 0030241 195.7583 164.2669 14.20222917  2522
QIANFAN-229             
1 69858U 26155L   26204.22996777  .00000093  00000+0  35548-4 0  9998
2 69858  89.0059  60.0330 0030054 195.1203 164.9093 14.21820660  2525
QIANFAN-230             
1 69859U 26155M   26204.26787254  .00000164  00000+0  73156-4 0  9997
2 69859  89.0055  60.0380 0029469 195.9963 164.0298 14.17864670  2528
QIANFAN-231             
1 69860U 26155N   26204.22880068  .00000180  00000+0  72027-4 0  9996
2 69860  89.0062  60.0333 0031336 194.7108 165.3176 14.23685346  2527
QIANFAN-232             
1 69861U 26155P   26204.22603996  .00000203  00000+0  81800-4 0  9995
2 69861  89.0060  60.0324 0030525 196.0911 163.9315 14.23943061  2522
QIANFAN-233             
1 69862U 26155Q   26204.22415432  .00000172  00000+0  68588-4 0  9995
2 69862  89.0062  60.0325 0030489 195.6853 164.3397 14.23733907  2526
QIANFAN-234             
1 69863U 26155R   26204.22135566  .00000078  00000+0  27112-4 0  9996
2 69863  89.0062  60.0321 0030466 194.4501 165.5824 14.24414426  2526
QIANFAN-235             
1 69864U 26155S   26204.21798128  .00000228  00000+0  87562-4 0  9997
2 69864  89.0061  60.0315 0031125 196.2723 163.7475 14.26767009  2520
QIANFAN-236             
1 69865U 26155T   26204.22762873  .00000054  00000+0  18064-4 0  9995
2 69865  89.0062  60.0330 0029616 195.5468 164.4816 14.21103804  2528
QIANFAN-237             
1 69866U 26155U   26204.22147043  .00000078  00000+0  27077-4 0  9992
2 69866  89.0061  60.0320 0030769 195.7216 164.3025 14.24432576  2515
QIANFAN-238             
1 69867U 26155V   26204.21781485  .00000223  00000+0  85780-4 0  9993
2 69867  89.0061  60.0315 0031157 196.0055 164.0158 14.26739882  2524
